{
"type": "FeatureCollection",
"name": "Zonas 2 este si",
"crs": { "type": "name", "properties": { "name": "urn:ogc:def:crs:OGC:1.3:CRS84" } },
"features": [
{"type":"Feature","properties":{"fid":1,"area_name":"Abu Dhabi Urban","emirate":"Abu Dhabi","zone_code":1,"zone_name":"Zone 1","notes":null},"geometry":{"type":"Polygon","coordinates":[[[54.524132654500228,24.383268710689421],[54.467824167170832,24.383743580259107],[54.449576046277031,24.318669840804542],[54.455832544869182,24.313443491866042],[54.512141032198606,24.313443491866042],[54.524654029382901,24.31391862339801],[54.543423525159383,24.29253594249586],[54.554372397695651,24.281130372860655],[54.60598851108093,24.244530590233783],[54.649784001226038,24.254513394131074],[54.666467997471791,24.269723778887467],[54.670638996533221,24.283031372277488],[54.659168749114272,24.29253594249586],[54.769178849359697,24.419828445744411],[54.768136099594336,24.435018987861291],[54.751452103348576,24.455902995616345],[54.761358226119484,24.466818258589182],[54.752494853113937,24.478207089492521],[54.748845228935181,24.57212559026409],[54.785445745699285,24.640480564946269],[54.833412234905815,24.688808947440709],[54.749992253677078,24.705861552508285],[54.716624261185558,24.69733554173396],[54.6749142705712,24.654696738057488],[54.662401273386877,24.64995819352141],[54.635289779487529,24.618679290322724],[54.648845526437199,24.593081638668373],[54.637479553994794,24.567289081224949],[54.632787180050663,24.554959880678062],[54.61506043403957,24.545712184695301],[54.610368060095453,24.5433408707813],[54.609585997771433,24.52531742066353],[54.602808124296587,24.526503253482034],[54.603068811737934,24.518439369504179],[54.583777941078786,24.50657977619489],[54.514278669217582,24.524416180232215],[54.499680172502551,24.528685156608574],[54.489252674848956,24.554295966249274],[54.487688550200915,24.571841094899462],[54.46944042930712,24.571841094899462],[54.464748055363003,24.579901546764276],[54.435029687050275,24.549553618118235],[54.418867065687188,24.540068383983026],[54.398012070380013,24.538645537017103],[54.392798321553215,24.534376899332255],[54.415738816391126,24.516352162252392],[54.432944187519553,24.51540342021962],[54.450149558647986,24.507338823692201],[54.462141180949622,24.504966785042619],[54.469961804189808,24.495478182832358],[54.510629045038819,24.482192936863186],[54.523142042223149,24.483616423184369],[54.504893921329341,24.520621412732758],[54.551817660770524,24.503543540365737],[54.574236780725748,24.498799275064286],[54.583621528613982,24.484090915045968],[54.598220025329027,24.478871406154742],[54.591442151854174,24.460838709949307],[54.594049026267584,24.45419443405968],[54.589408789811721,24.448736373865803],[54.556301484761569,24.439718191282743],[54.519023180649974,24.428088529925219],[54.486437250482481,24.42381614010743],[54.468189129588701,24.433547484118613],[54.465582255175306,24.444464683596063],[54.457240257052419,24.445176642028343],[54.450723071018921,24.443040754667404],[54.442902447778728,24.445176642028343],[54.438992136158639,24.44683786273109],[54.442641760337388,24.448973685746711],[54.431171512918425,24.459414966046904],[54.42830395106369,24.467719911923318],[54.421082908938587,24.46690130587675],[54.413457801279399,24.46998588061458],[54.404398912692834,24.477222470846399],[54.391390609369978,24.485039893400813],[54.38216227394657,24.498609500728346],[54.384247773477284,24.509995453831444],[54.402495894371064,24.519957316632393],[54.388940147421394,24.534661479694392],[54.377469900002438,24.542724321822586],[54.359743153991339,24.537032957621054],[54.361307278639373,24.525175119972797],[54.348794281455056,24.511418625447227],[54.337845408918795,24.503353773191268],[54.326896536382513,24.480105127795191],[54.314383539198211,24.485799070930955],[54.298220917835138,24.462072608313473],[54.301870542013887,24.453055380149557],[54.315426288963565,24.449258459413922],[54.32679226140597,24.449329652730174],[54.338914227428283,24.44707517818696],[54.340608695796995,24.450634856400203],[54.340739039517651,24.45419443405968],[54.347516912992496,24.451346779976738],[54.341651445562348,24.450753510608937],[54.341781789283019,24.44826174876334],[54.355728567394699,24.43865020588385],[54.367459502254988,24.428681905956253],[54.372542907361122,24.428325880672585],[54.381275936646006,24.42500292957018],[54.380754561763332,24.42393481955607],[54.427808644925179,24.408624249163285],[54.522307842410889,24.383221223634347],[54.524132654500228,24.383268710689421]]]}},
{"type":"Feature","properties":{"fid":2,"area_name":"Dubai Urban","emirate":"Dubai","zone_code":1,"zone_name":"Zone 1","notes":null},"geometry":{"type":"Polygon","coordinates":[[[55.083873268221716,24.794350825331485],[55.170491015397573,24.848039930955192],[55.240207738734242,24.953432841917589],[55.240207738734242,24.987905505138208],[55.301473950151298,25.039596377691371],[55.33527599782969,25.066390481438461],[55.359571219598514,25.066773211909979],[55.494779410312056,25.164330414748644],[55.529637771980376,25.18727372659319],[55.542313539859769,25.200655330386969],[55.568037564974439,25.233379093894989],[55.386453858042607,25.302644476051963],[55.377391928501964,25.297868175830128],[55.37234813048007,25.297056102228588],[55.363887286912359,25.297700568369073],[55.34941938365629,25.311578993952285],[55.355662857835711,25.298439703053258],[55.347212345916112,25.310615434991654],[55.352757994363344,25.320880297515924],[55.35434246534826,25.326131751219584],[55.34958905239349,25.327086536512763],[55.336913284514097,25.30775066694833],[55.304959786318136,25.280054417996968],[55.294660724916127,25.275278563324989],[55.291755861443754,25.280531993124654],[55.272689393925198,25.26773232982719],[55.217761066447828,25.175515818745687],[55.193782738875953,25.155104074402672],[55.163677790162403,25.114700744702539],[55.134365076941307,25.090308837232993],[55.075211493504121,25.023804253230942],[55.066232824589555,25.043902967913802],[55.05751823417247,25.046534698597345],[55.036127875875998,25.036964498109977],[55.04193760282071,25.029786357698928],[55.042993916810673,25.020932739515793],[55.046691015775501,25.019736255642073],[55.051444428730257,25.005377539669016],[55.041409445825735,25.005377539669016],[55.038768660850863,24.992931961360647],[55.029789991936312,24.992453260099616],[55.023188029499117,24.989820369839077],[54.990970452805655,24.975506034478041],[54.958224719117219,24.964015061657481],[54.922310043458928,24.934325083165209],[54.91422924143582,24.928050962294666],[54.888877705677032,24.911046968588451],[54.941429326677031,24.896915106070892],[55.024085896390574,24.867927750995339],[55.08392608392122,24.794782348359863],[55.085510554906143,24.794782348359863],[55.083873268221716,24.794350825331485]]]}},
{"type":"Feature","properties":{"fid":3,"area_name":"Ajman Urban","emirate":"Ajman","zone_code":1,"zone_name":"Zone 1","notes":null},"geometry":{"type":"Polygon","coordinates":[[[55.42321413749297,25.398196849253221],[55.432456884905015,25.415133064826655],[55.442227789312057,25.43015898292813],[55.452790929211552,25.427297047702123],[55.472068659528126,25.450667529307683],[55.486592976889938,25.441844512947807],[55.516697925603495,25.445421489389677],[55.534127106437658,25.44709070870223],[55.593280689874824,25.425389053126239],[55.619688539623567,25.420618934543622],[55.62866720853814,25.41417897504898],[55.629987601025569,25.410839601381511],[55.62893128703562,25.407261598416671],[55.593016611377337,25.367657948216149],[55.540464990377345,25.363362795977249],[55.498212430779368,25.355726592891688],[55.463618147608535,25.37243016054477],[55.434305434387433,25.388892845972997],[55.426119000965329,25.393902783011544],[55.42321413749297,25.39771973832697],[55.42321413749297,25.39771973832697],[55.42321413749297,25.398196849253221]]]}},
{"type":"Feature","properties":{"fid":4,"area_name":"Sharjah Urban","emirate":"Sharjah","zone_code":1,"zone_name":"Zone 1","notes":null},"geometry":{"type":"Polygon","coordinates":[[[55.386072449880068,25.302469041488717],[55.567937184200645,25.233787080076919],[55.602638902748716,25.316185444565999],[55.625058022703932,25.372257506261459],[55.64434889336308,25.397222407530087],[55.650813941908311,25.42999866122701],[55.624380235356448,25.434707161003836],[55.591794305188955,25.465307923155191],[55.552169814105319,25.486582635936305],[55.520887321144542,25.521404789265489],[55.505767449546831,25.504936110242379],[55.489604828183765,25.479522860931219],[55.479698705412837,25.476228157387538],[55.476049081234095,25.469638479491913],[55.473963581703373,25.459753285754132],[55.477613205882115,25.457399548495999],[55.471825944684383,25.450644066935521],[55.486424441399414,25.442052053210816],[55.534260586885267,25.447348572506876],[55.593306292348743,25.425807941682066],[55.61989641136541,25.420745923211886],[55.629150815532981,25.414270938605878],[55.629932877856987,25.411092182555738],[55.629020471812304,25.40720692249182],[55.593306292348764,25.367640789359815],[55.540126054315436,25.363283012099483],[55.498624613654115,25.355532847074887],[55.497568829516702,25.355921544997116],[55.486372303911153,25.361386741040526],[55.426349020542624,25.392842147330935],[55.422699396363868,25.39731660492798],[55.397412714553901,25.380359888985559],[55.382032155514857,25.373764967452448],[55.366130221593117,25.361280737432537],[55.367694346241166,25.351386658153544],[55.355442036498189,25.331360449388782],[55.354399286732836,25.327826068485713],[55.350749662554072,25.315337096245514],[55.349446225347364,25.311566587379939],[55.363642396908034,25.297993109673239],[55.372140851109314,25.296993634808096],[55.377184649131202,25.29793064273559],[55.384439427107907,25.301428741669618],[55.384482617463441,25.30131492318862],[55.384482617463441,25.30131492318862],[55.386072449880068,25.302469041488717]]]}},
{"type":"Feature","properties":{"fid":5,"area_name":"Fujairah Urban","emirate":"Fujairah","zone_code":2,"zone_name":"Zone 2","notes":null},"geometry":{"type":"Polygon","coordinates":[[[56.31659318561163,25.130122747141353],[56.301864345175929,25.130358759155619],[56.297497830533487,25.125697437441371],[56.296259565187114,25.122334094859056],[56.297563002393808,25.119501734560519],[56.311640124226173,25.107463470977855],[56.316136982589278,25.102340948347539],[56.350547724846123,25.101632748612577],[56.352502880656168,25.100098301785472],[56.356282848555615,25.099626160427338],[56.358889722969003,25.099980266616797],[56.357846973203635,25.108832588149166],[56.358440037132674,25.109741390219323],[56.359450200967878,25.110685593006977],[56.364103471795808,25.11027250518466],[56.35875937924834,25.114167277760711],[56.357716629482972,25.11617362732504],[56.358368348086309,25.125732840555081],[56.357664491994711,25.127278766514813],[56.358003385668439,25.153910463874031],[56.358915791713123,25.165118346313868],[56.358524760551134,25.167831678790435],[56.339494577333312,25.169129338197884],[56.325156768059621,25.163938617711029],[56.326851236428332,25.159809477735571],[56.333629109903178,25.161933052896281],[56.337409077802597,25.159573522657801],[56.34014629593667,25.156152122742103],[56.333629109903178,25.151196821720387],[56.317596832260776,25.137155709462938],[56.316423738774745,25.130311556789245],[56.31659318561163,25.130122747141353]]]}},
{"type":"Feature","properties":{"fid":6,"area_name":"Umm Al Quwain Urban","emirate":"Umm Al Quwain","zone_code":2,"zone_name":"Zone 2","notes":null},"geometry":{"type":"Polygon","coordinates":[[[55.6143876110959,25.451863404531142],[55.634457576904936,25.470818591021001],[55.641983814083325,25.473441086046424],[55.635777969392372,25.479520286391264],[55.626799300477806,25.479877876840352],[55.618480827806941,25.496325887643863],[55.611350708374793,25.495372441238338],[55.609502158892383,25.497160147041864],[55.618612867055695,25.500854654737573],[55.631024556437602,25.5029998006111],[55.624897935295898,25.519182499452292],[55.618560051356212,25.524663625944605],[55.60218718451199,25.513343632842201],[55.596905614562246,25.520850694886114],[55.60218718451199,25.524425321302914],[55.595321143577316,25.531812545105524],[55.582513336449182,25.528595584200215],[55.569969607818528,25.531574254663635],[55.567592901341158,25.530740234389231],[55.566272508853707,25.524306168804596],[55.563763763127575,25.524901930113021],[55.564688037868791,25.529667914087359],[55.563235606132601,25.535029419738077],[55.55980258566526,25.537769652297346],[55.560066664162747,25.547419537946872],[55.5662725088537,25.565287645187333],[55.567460862092396,25.574697110262019],[55.56429192012255,25.581366662952036],[55.566668626599942,25.585296761046656],[55.568121058336111,25.584105835859511],[55.567460862092396,25.582438520686523],[55.572874471290888,25.580771182285037],[55.579080315981848,25.582557615397796],[55.581457022459219,25.585892219195671],[55.58224925795168,25.59029851740172],[55.581192943961739,25.599825093869264],[55.579608472976815,25.60661231665518],[55.572742432042141,25.594347405109655],[55.557689957685369,25.585654036291633],[55.543165640323558,25.560165726893459],[55.53920446286125,25.556592165833543],[55.538544266617542,25.553494993366638],[55.521775282027079,25.519897443191812],[55.552725281932581,25.486957948715585],[55.614427222870511,25.451934939148789],[55.6143876110959,25.451863404531142]]]}},
{"type":"Feature","properties":{"fid":7,"area_name":"Al Ain Urban","emirate":"Al Ain","zone_code":2,"zone_name":"Zone 2","notes":null},"geometry":{"type":"Polygon","coordinates":[[[55.753939391306034,24.24632875835632],[55.759402368158042,24.261365088194026],[55.768472971233052,24.262210828927362],[55.791871004165181,24.279688210762743],[55.80776929546758,24.310035116741801],[55.834474507097966,24.327777320016569],[55.83100784661606,24.357595666757639],[55.79150562321248,24.366763095232308],[55.777334353572023,24.346250565374177],[55.780483524603241,24.343381415114326],[55.783475237082897,24.325591232821139],[55.787569159423462,24.317843114686319],[55.776389602262668,24.319851931526721],[55.771508387164282,24.317986602659012],[55.76914650889087,24.309951026136417],[55.761431039864412,24.307655053613839],[55.754502863595732,24.318991013921039],[55.751082498036787,24.316609003893355],[55.739928025133672,24.29890996581948],[55.733753227633713,24.285565981916228],[55.725686153480559,24.276396853607892],[55.708737556250298,24.271783128678688],[55.700749686414774,24.269866854047091],[55.700749686414774,24.269866854047091],[55.691220297839038,24.262712506774928],[55.68687601775305,24.257602012178172],[55.679028285984792,24.250446974648405],[55.675805110437125,24.245591541358145],[55.663420335570272,24.235325132858122],[55.65243314915044,24.22685653324011],[55.636784244089561,24.219614526835905],[55.610820545645701,24.207580690168228],[55.600116334090309,24.204556758653549],[55.604798710193606,24.211990787323089],[55.599162516735937,24.222903788331688],[55.599162516735937,24.222903788331688],[55.600203044758899,24.230969318541003],[55.591618688569525,24.229308809969893],[55.589797764529358,24.224801606108315],[55.584508413746008,24.221875791893929],[55.575782999789674,24.209736039679385],[55.566708287128115,24.204689235035115],[55.574233658603553,24.202569517491735],[55.574233658603553,24.202569517491735],[55.582865702354788,24.202569517491735],[55.587403058685581,24.201358234498009],[55.591055077195726,24.201055411951224],[55.595260431843762,24.201761996774749],[55.597363109167766,24.195402592382013],[55.597363109167766,24.187932410728269],[55.598027112533259,24.185105741415622],[55.608257914021401,24.17485828542193],[55.609960573292035,24.171310986505045],[55.61977351422513,24.164276611830736],[55.624767600235735,24.158361042278226],[55.633266308008153,24.160039812833109],[55.633266308008153,24.160039812833109],[55.644568713190026,24.16531580521298],[55.650614185729168,24.163397287748214],[55.650614185729168,24.163397287748214],[55.631776843759376,24.155882816849356],[55.610924344276533,24.144210528177265],[55.621402386506041,24.138447146611909],[55.621402386506041,24.138447146611909],[55.628182999304215,24.134396941207026],[55.635333463709557,24.131584223089479],[55.650867231210825,24.133721894500624],[55.650867231210825,24.133721894500624],[55.658017695616181,24.135184491194106],[55.658017695616181,24.135184491194106],[55.657894411747122,24.144634712684049],[55.664181889069063,24.13810963439488],[55.664181889069063,24.138784657937993],[55.668003689009851,24.144859709443207],[55.665044876152457,24.146097184538949],[55.672318624426858,24.148122117942442],[55.676633559843886,24.149247067080999],[55.674784301808025,24.144072219053403],[55.674044598593682,24.139684683785017],[55.680701927522797,24.137097092398122],[55.680085508177505,24.133721894500624],[55.664517122580165,24.130187149307403],[55.663540748067973,24.118714265068473],[55.666713965232603,24.115595244913134],[55.67403677407404,24.11058237471293],[55.684166659638073,24.105235096809515],[55.692465842991709,24.101892934723345],[55.686607595918552,24.091086013786306],[55.688072157686847,24.083063792344156],[55.699910698647187,24.083286638608818],[55.706501226604495,24.084400864120941],[55.712359473677672,24.085180816216585],[55.717485439866692,24.087520644026959],[55.725174389150219,24.084400864120941],[55.726937999079205,24.084398483220163],[55.729524421628071,24.076724150748685],[55.730171027265293,24.068796336006329],[55.730171027265293,24.059940218901954],[55.743472628945128,24.058253270148807],[55.749753940849494,24.057831529495679],[55.749753940849494,24.057831529495679],[55.746059051493987,24.074531399955507],[55.740701461928502,24.092999936139233],[55.742826023307906,24.102106727538477],[55.741625184267363,24.106238299006559],[55.740609089694587,24.110454050847892],[55.732480333112477,24.11003248191026],[55.733404055451359,24.116946037177005],[55.736799590956643,24.135864763520281],[55.739027768259696,24.14874222931763],[55.734076263141773,24.159472459697596],[55.720212048811632,24.160150128200645],[55.72231643848675,24.165571346782901],[55.728629607512076,24.172008744925193],[55.737789891980221,24.171105270029962],[55.745836087796825,24.171444073864986],[55.745836087796825,24.171444073864986],[55.747940477471936,24.18081729002806],[55.750911380542696,24.175396718832129],[55.750911380542696,24.175396718832129],[55.759576514499038,24.174606199630439],[55.772574215433558,24.174944994173533],[55.772574215433558,24.174944994173533],[55.769850887618702,24.182624095927363],[55.767622710315642,24.183414565462975],[55.769850887618702,24.193351478956576],[55.770222250502535,24.202271457720339],[55.773193153573288,24.191883574559501],[55.787057367903451,24.192673986718926],[55.795424996951809,24.182834369143087],[55.808256885822331,24.176396017078964],[55.817560005253455,24.169176872462753],[55.833706798748857,24.167713482574193],[55.834883055228651,24.164298840942465],[55.837556365410016,24.16264026777559],[55.845469363546826,24.164493965781222],[55.835738514486685,24.180883387669653],[55.835738514486685,24.180883387669653],[55.821302639507358,24.188101870106472],[55.819377856176764,24.195027327404087],[55.810930196003689,24.20029432481979],[55.807615291378802,24.203805535548291],[55.808256885822331,24.208584528069533],[55.809326209894856,24.21131530047964],[55.804274988405133,24.215984613490161],[55.800050213124599,24.220362969172196],[55.800050213124599,24.220362969172196],[55.794289155923863,24.22263965464904],[55.790256415883341,24.22579192119597],[55.787759957763022,24.227017781557223],[55.783151112002429,24.231395757930613],[55.77623784336155,24.234722919284184],[55.766059975640246,24.232796678573827],[55.753193614558619,24.234898030630582],[55.754153790758728,24.246104655641187],[55.753939391306034,24.24632875835632]]]}},
{"type":"Feature","properties":{"fid":8,"area_name":"Ras Al Khaimah Urban","emirate":"Ras Al Khaimah","zone_code":2,"zone_name":"Zone 2","notes":null},"geometry":{"type":"Polygon","coordinates":[[[56.056965835300133,25.901554530393163],[56.064204969997988,25.896721355293725],[56.061546874969792,25.881098681133658],[56.053844626888093,25.871814685497025],[56.050157630790736,25.868048983402542],[56.034831800033785,25.875997844745573],[56.034831800033785,25.875997844745573],[56.025039090246658,25.867061620460476],[56.021842813192023,25.858720815853534],[56.02067084493865,25.85181763591487],[56.020883930075627,25.85181763591487],[56.026104515931529,25.850954710083627],[56.024293292267238,25.845489366927524],[56.020564302370175,25.846544101940172],[56.020244674664703,25.843955190119644],[56.018539993568901,25.84184566451944],[56.016090207498898,25.838907049487375],[56.012847052612571,25.833542437199267],[56.027739035348318,25.838012193632551],[56.027739035348318,25.838012193632551],[56.029362541153859,25.830705949859109],[56.035044811473206,25.824221280730633],[56.034740404134666,25.817188209906327],[56.039002106874186,25.813534501767869],[56.042249118485252,25.81097683901071],[56.043771155177936,25.801202404786004],[56.043365278726547,25.796177849174587],[56.040422674454021,25.790878996170541],[56.033086747242344,25.779357282327467],[56.028599462821518,25.773847122867817],[56.018401089137839,25.754865726353383],[56.014196372049135,25.731925090517329],[55.999544520933149,25.710134427414875],[55.987683498601164,25.697561075425085],[55.966287144590503,25.699866289378189],[55.942099961795869,25.70510524599646],[55.923261867503868,25.691902633775246],[55.910703137975879,25.682890486487935],[55.900799015216165,25.674138614278327],[55.894670719378631,25.663342651869922],[55.885338996171491,25.652330541934667],[55.870102442300698,25.659960742999708],[55.837936384129073,25.63676341861899],[55.816037603748903,25.654422818072259],[55.785694096123443,25.642379035039571],[55.785694096123443,25.642379035039571],[55.765767016488795,25.652993958220158],[55.748330821808494,25.655239301732482],[55.747651489548204,25.661362751045289],[55.769616565963659,25.683404564944833],[55.774371891785577,25.692179337658189],[55.782070990735313,25.704218089994917],[55.798445762259973,25.721317911301536],[55.799376674489309,25.718420640780632],[55.799376674489309,25.721546640179096],[55.798615019028944,25.721317911301536],[55.800053701565183,25.720326747749276],[55.798530390644459,25.718191905891814],[55.796753194570286,25.715980779291524],[55.797514850030637,25.711558402802723],[55.800984613794526,25.710414657993226],[55.800984613794526,25.714913324154747],[55.806654715554998,25.714150850336065],[55.812409445699984,25.71399835498595],[55.817910290691486,25.715370806100434],[55.820195257072591,25.716438257132424],[55.825611473679615,25.715218312313997],[55.822903365376092,25.720631722029694],[55.833143399898766,25.72467255741989],[55.83898275842823,25.726502324509219],[55.839067386812708,25.722080339182789],[55.843435213822715,25.714782057272565],[55.846726936391313,25.719230564874632],[55.861745420610561,25.722196144188324],[55.861745420610561,25.722196144188324],[55.876969637490333,25.731648434731881],[55.889107864462055,25.738876149869053],[55.89610277492033,25.745732806646942],[55.92737413932204,25.778157577233149],[55.950210464641685,25.807054475441319],[55.975515581887805,25.829648422266935],[55.993620056015125,25.85297862785341],[56.004523887023609,25.868344423692985],[56.009255738215963,25.887780218533418],[56.009255738215963,25.887780218533418],[56.023862757114117,25.884818780163481],[56.035795251425299,25.884078408964939],[56.035795251425299,25.884078408964939],[56.038469776012292,25.892777477336239],[56.047110547754855,25.892222236805146],[56.057808646102799,25.901475904635465],[56.056965835300133,25.901554530393163]]]}},
{"type":"Feature","properties":{"fid":9,"area_name":"Abu Dhabi Urban","emirate":"Abu Dhabi","zone_code":1,"zone_name":"Zone 1","notes":null},"geometry":{"type":"Polygon","coordinates":[[[54.566554827052308,24.443051122647052],[54.591656558487536,24.448763977842045],[54.593968560067097,24.453574602413312],[54.590005128787851,24.468005374008776],[54.590005128787851,24.468005374008776],[54.574481689610806,24.470710959596815],[54.541122809677134,24.497162509803747],[54.513709076662352,24.507080407073513],[54.513378790722406,24.516396506791288],[54.507103357863606,24.520603551213295],[54.525269084560151,24.480630942594367],[54.519323937641282,24.473717097611775],[54.493891920266108,24.482735080893608],[54.433119307317654,24.496561399974144],[54.433119307317654,24.496561399974144],[54.403723858663241,24.516095998226888],[54.384236988206929,24.510987242658111],[54.386879275726436,24.489648430408948],[54.413962722801294,24.472214037577572],[54.443358171455714,24.467404124871361],[54.465817615371449,24.452071301963528],[54.46879018883088,24.435533813450281],[54.479029052968933,24.428016056090559],[54.495543349965793,24.425911003733027],[54.51979858191465,24.428291505224216],[54.51979858191465,24.428291505224216],[54.541930083877183,24.435516903834252],[54.59100820538918,24.450024185700244],[54.594003996227613,24.453660314861402],[54.566554827052308,24.443051122647052]]]}},
{"type":"Feature","properties":{"fid":10,"area_name":"Dubai Urban","emirate":"Dubai","zone_code":1,"zone_name":"Zone 1","notes":null},"geometry":{"type":"Polygon","coordinates":[[[54.984064463481538,24.973919754958455],[54.968313888676953,24.977279214273544],[54.953489818272622,24.992395645599867],[54.953026566072488,25.026400818406643],[54.97155665407788,25.042770320364284],[54.97155665407788,25.042770320364284],[55.010933091089385,25.041511205459027],[55.026683665893991,25.016745985819572],[55.022051143892632,24.99533473585484],[55.022051143892632,24.987776933205964],[54.986380724482231,24.973919754958455],[54.984064463481538,24.973919754958455]]]}},
{"type":"Feature","properties":{"fid":11,"area_name":"Dubai Urban","emirate":"Dubai","zone_code":1,"zone_name":"Zone 1","notes":null},"geometry":{"type":"Polygon","coordinates":[[[55.122132868322076,25.096436598558039],[55.11328865715334,25.100886114855339],[55.106901171309232,25.115568370089463],[55.11328865715334,25.134697147457402],[55.129748716828495,25.143593232558711],[55.129748716828495,25.143593232558711],[55.147437139165987,25.144260412810254],[55.15529866020487,25.134697147457402],[55.157264040464582,25.119794753058002],[55.164634216438543,25.112454099647266],[55.152350589815292,25.097326514765697],[55.143752051179014,25.088427061389659],[55.122378540854534,25.095769157153867],[55.122132868322076,25.096436598558039]]]}}
]
}
